[{"OBJECT_NAME":"YAOGAN-43 01H","OBJECT_ID":"2024-148H","EPOCH":"2026-03-10T00:13:57.702432","MEAN_MOTION":15.25826805,"ECCENTRICITY":0.000635,"INCLINATION":34.994,"RA_OF_ASC_NODE":64.6147,"ARG_OF_PERICENTER":359.2394,"MEAN_ANOMALY":0.8311,"EPHEMERIS_TYPE":0,"CLASSIFICATION_TYPE":"U","NORAD_CAT_ID":60465,"ELEMENT_SET_NO":999,"REV_AT_EPOCH":8702,"BSTAR":0.00039232254,"MEAN_MOTION_DOT":0.00010268,"MEAN_MOTION_DDOT":0},{"OBJECT_NAME":"STARLINK-32710","OBJECT_ID":"2025-008T","EPOCH":"2026-03-09T00:08:03.895296","MEAN_MOTION":15.27583206,"ECCENTRICITY":0.00033494,"INCLINATION":43.0054,"RA_OF_ASC_NODE":281.4422,"ARG_OF_PERICENTER":264.1752,"MEAN_ANOMALY":95.8718,"EPHEMERIS_TYPE":0,"CLASSIFICATION_TYPE":"U","NORAD_CAT_ID":62604,"ELEMENT_SET_NO":999,"REV_AT_EPOCH":6546,"BSTAR":0.0012655591,"MEAN_MOTION_DOT":0.00034734,"MEAN_MOTION_DDOT":0}]
